[{"OBJECT_NAME":"REAL","OBJECT_ID":"2025-154G","EPOCH":"2026-03-09T17:20:09.670560","MEAN_MOTION":15.28408058,"ECCENTRICITY":0.00018528,"INCLINATION":97.4133,"RA_OF_ASC_NODE":137.2581,"ARG_OF_PERICENTER":118.5876,"MEAN_ANOMALY":241.555,"EPHEMERIS_TYPE":0,"CLASSIFICATION_TYPE":"U","NORAD_CAT_ID":64875,"ELEMENT_SET_NO":999,"REV_AT_EPOCH":3483,"BSTAR":0.0008290401,"MEAN_MOTION_DOT":0.00022901,"MEAN_MOTION_DDOT":0},{"OBJECT_NAME":"STARLINK-35785","OBJECT_ID":"2025-303P","EPOCH":"2026-03-08T16:48:27.758592","MEAN_MOTION":15.27590097,"ECCENTRICITY":0.00016468,"INCLINATION":42.998,"RA_OF_ASC_NODE":316.3187,"ARG_OF_PERICENTER":260.863,"MEAN_ANOMALY":99.2036,"EPHEMERIS_TYPE":0,"CLASSIFICATION_TYPE":"U","NORAD_CAT_ID":67176,"ELEMENT_SET_NO":999,"REV_AT_EPOCH":1258,"BSTAR":0.001349336,"MEAN_MOTION_DOT":0.00037067,"MEAN_MOTION_DDOT":0}]
